{
  "type": "FeatureCollection",
  "features": [
    {
      "type": "Feature",
      "properties": {},
      "geometry": {
        "type": "Polygon",
        "coordinates": [
          [
            [
              -76.54977013137942,
              38.87398361209654
            ],
            [
              -76.54990270236144,
              38.87392850962871
            ],
            [
              -76.5498590234411,
              38.873852498024824
            ],
            [
              -76.54971736079783,
              38.87390242573706
            ],
            [
              -76.54977013137942,
              38.87398361209654
            ]
          ]
        ]
      }
    }
  ]
}